ONEWEB-0694             
1 56722U 23068N   25265.77712263 -.00000017  00000+0 -77417-4 0  9995
2 56722  87.8983 282.0225 0002295  94.4049 265.7345 13.16593123116583
ONEWEB-0696             
1 56723U 23068P   25265.83114751  .00000108  00000+0  25281-3 0  9991
2 56723  87.9012 312.5856 0001533  97.4171 262.7134 13.15547504114212
ONEWEB-0703             
1 56724U 23068Q   25265.61247981 -.00000080  00000+0 -24595-3 0  9998
2 56724  87.9009 312.6132 0001000  67.7000 292.4236 13.15546791114071
ONEWEB-0721             
1 56725U 23068R   25266.21215060  .00000121  00000+0  25604-3 0  9995
2 56725  86.6872 170.6349 0001755  72.8493 287.2832 13.22445490122657
ONEWEB-0015             
1 61594U 24188A   25266.19445351 -.00000628  00000+0 -18080-2 0  9997
2 61594  87.8791  74.2868 0002051  76.1917 283.9439 13.11417431 49468
ONEWEB-0687             
1 61595U 24188B   25265.70765332  .00000080  00000+0  17277-3 0  9996
2 61595  87.9049  59.1078 0002319  93.3302 266.8095 13.17646642 50674
ONEWEB-0688             
1 61596U 24188C   25266.19195505  .00000091  00000+0  20020-3 0  9992
2 61596  87.9054  59.0113 0002604  68.8784 291.2626 13.17649714 50730
ONEWEB-0689             
1 61597U 24188D   25266.22838057  .00000546  00000+0  15044-2 0  9997
2 61597  87.8753  74.2305 0001963  95.9298 264.2054 13.11416501 49469
ONEWEB-0690             
1 61598U 24188E   25266.16226796  .00000040  00000+0  78217-4 0  9994
2 61598  87.8802  74.2291 0000935  76.6597 283.4636 13.11417007 49635
ONEWEB-0691             
1 61599U 24188F   25266.23346146  .00000532  00000+0  14644-2 0  9993
2 61599  87.8718  74.1633 0001855  78.7441 281.3895 13.11414122 49497
ONEWEB-0692             
1 61600U 24188G   25266.17750202 -.00000187  00000+0 -56383-3 0  9996
2 61600  87.8775  74.2881 0001802 123.2618 236.8683 13.11412035 49472
ONEWEB-0693             
1 61601U 24188H   25265.90002314  .00000026  00000+0  33188-4 0  9990
2 61601  87.9054  59.0884 0001122  65.2247 294.9001 13.17649801 50689
ONEWEB-0695             
1 61602U 24188J   25266.23007210  .00000532  00000+0  14649-2 0  9999
2 61602  87.8782  74.2649 0002008 104.4727 255.6624 13.11416487 49474
ONEWEB-0697             
1 61603U 24188K   25266.18597905 -.00000487  00000+0 -14103-2 0  9995
2 61603  87.8778  74.2647 0001739 120.1768 239.9532 13.11415615 49451
ONEWEB-0698             
1 61604U 24188L   25266.16394807  .00000377  00000+0  10289-2 0  9997
2 61604  87.8780  74.2837 0001000 131.4210 228.7004 13.11413981 49470
ONEWEB-0699             
1 61605U 24188M   25265.81157227  .00000741  00000+0  20850-2 0  9992
2 61605  87.8745  89.5702 0001525 112.2551 247.8738 13.10372715 48292
ONEWEB-0700             
1 61606U 24188N   25265.50780491  .00000621  00000+0  17414-2 0  9993
2 61606  87.8728  89.5145 0002122 106.3718 253.7643 13.10372012 48244
