[{"OBJECT_NAME":"ONEWEB-0694","OBJECT_ID":"2023-068N","EPOCH":"2025-09-22T18:39:03.395232","MEAN_MOTION":13.16593123,"ECCENTRICITY":0.00022957,"INCLINATION":87.8983,"RA_OF_ASC_NODE":282.0225,"ARG_OF_PERICENTER":94.4049,"MEAN_ANOMALY":265.7345,"EPHEMERIS_TYPE":0,"CLASSIFICATION_TYPE":"U","NORAD_CAT_ID":56722,"ELEMENT_SET_NO":999,"REV_AT_EPOCH":11658,"BSTAR":-7.7417474e-5,"MEAN_MOTION_DOT":-1.7e-7,"MEAN_MOTION_DDOT":0},{"OBJECT_NAME":"ONEWEB-0696","OBJECT_ID":"2023-068P","EPOCH":"2025-09-22T19:56:51.144864","MEAN_MOTION":13.15547504,"ECCENTRICITY":0.00015336,"INCLINATION":87.9012,"RA_OF_ASC_NODE":312.5856,"ARG_OF_PERICENTER":97.4171,"MEAN_ANOMALY":262.7134,"EPHEMERIS_TYPE":0,"CLASSIFICATION_TYPE":"U","NORAD_CAT_ID":56723,"ELEMENT_SET_NO":999,"REV_AT_EPOCH":11421,"BSTAR":0.0002528106,"MEAN_MOTION_DOT":1.08e-6,"MEAN_MOTION_DDOT":0},{"OBJECT_NAME":"ONEWEB-0703","OBJECT_ID":"2023-068Q","EPOCH":"2025-09-22T14:41:58.255584","MEAN_MOTION":13.15546791,"ECCENTRICITY":0.00010006,"INCLINATION":87.9009,"RA_OF_ASC_NODE":312.6132,"ARG_OF_PERICENTER":67.7,"MEAN_ANOMALY":292.4236,"EPHEMERIS_TYPE":0,"CLASSIFICATION_TYPE":"U","NORAD_CAT_ID":56724,"ELEMENT_SET_NO":999,"REV_AT_EPOCH":11407,"BSTAR":-0.00024595437,"MEAN_MOTION_DOT":-8.0e-7,"MEAN_MOTION_DDOT":0},{"OBJECT_NAME":"ONEWEB-0721","OBJECT_ID":"2023-068R","EPOCH":"2025-09-23T05:05:29.811840","MEAN_MOTION":13.2244549,"ECCENTRICITY":0.00017554,"INCLINATION":86.6872,"RA_OF_ASC_NODE":170.6349,"ARG_OF_PERICENTER":72.8493,"MEAN_ANOMALY":287.2832,"EPHEMERIS_TYPE":0,"CLASSIFICATION_TYPE":"U","NORAD_CAT_ID":56725,"ELEMENT_SET_NO":999,"REV_AT_EPOCH":12265,"BSTAR":0.0002560371,"MEAN_MOTION_DOT":1.21e-6,"MEAN_MOTION_DDOT":0},{"OBJECT_NAME":"ONEWEB-0015","OBJECT_ID":"2024-188A","EPOCH":"2025-09-23T04:40:00.783264","MEAN_MOTION":13.11417431,"ECCENTRICITY":0.00020517,"INCLINATION":87.8791,"RA_OF_ASC_NODE":74.2868,"ARG_OF_PERICENTER":76.1917,"MEAN_ANOMALY":283.9439,"EPHEMERIS_TYPE":0,"CLASSIFICATION_TYPE":"U","NORAD_CAT_ID":61594,"ELEMENT_SET_NO":999,"REV_AT_EPOCH":4946,"BSTAR":-0.0018079714,"MEAN_MOTION_DOT":-6.28e-6,"MEAN_MOTION_DDOT":0},{"OBJECT_NAME":"ONEWEB-0687","OBJECT_ID":"2024-188B","EPOCH":"2025-09-22T16:59:01.246848","MEAN_MOTION":13.17646642,"ECCENTRICITY":0.00023197,"INCLINATION":87.9049,"RA_OF_ASC_NODE":59.1078,"ARG_OF_PERICENTER":93.3302,"MEAN_ANOMALY":266.8095,"EPHEMERIS_TYPE":0,"CLASSIFICATION_TYPE":"U","NORAD_CAT_ID":61595,"ELEMENT_SET_NO":999,"REV_AT_EPOCH":5067,"BSTAR":0.00017276796,"MEAN_MOTION_DOT":8.0e-7,"MEAN_MOTION_DDOT":0},{"OBJECT_NAME":"ONEWEB-0688","OBJECT_ID":"2024-188C","EPOCH":"2025-09-23T04:36:24.916320","MEAN_MOTION":13.17649714,"ECCENTRICITY":0.00026047,"INCLINATION":87.9054,"RA_OF_ASC_NODE":59.0113,"ARG_OF_PERICENTER":68.8784,"MEAN_ANOMALY":291.2626,"EPHEMERIS_TYPE":0,"CLASSIFICATION_TYPE":"U","NORAD_CAT_ID":61596,"ELEMENT_SET_NO":999,"REV_AT_EPOCH":5073,"BSTAR":0.00020020441,"MEAN_MOTION_DOT":9.1e-7,"MEAN_MOTION_DDOT":0},{"OBJECT_NAME":"ONEWEB-0689","OBJECT_ID":"2024-188D","EPOCH":"2025-09-23T05:28:52.081248","MEAN_MOTION":13.11416501,"ECCENTRICITY":0.00019638,"INCLINATION":87.8753,"RA_OF_ASC_NODE":74.2305,"ARG_OF_PERICENTER":95.9298,"MEAN_ANOMALY":264.2054,"EPHEMERIS_TYPE":0,"CLASSIFICATION_TYPE":"U","NORAD_CAT_ID":61597,"ELEMENT_SET_NO":999,"REV_AT_EPOCH":4946,"BSTAR":0.0015043755,"MEAN_MOTION_DOT":5.46e-6,"MEAN_MOTION_DDOT":0},{"OBJECT_NAME":"ONEWEB-0690","OBJECT_ID":"2024-188E","EPOCH":"2025-09-23T03:53:39.951744","MEAN_MOTION":13.11417007,"ECCENTRICITY":9.357e-5,"INCLINATION":87.8802,"RA_OF_ASC_NODE":74.2291,"ARG_OF_PERICENTER":76.6597,"MEAN_ANOMALY":283.4636,"EPHEMERIS_TYPE":0,"CLASSIFICATION_TYPE":"U","NORAD_CAT_ID":61598,"ELEMENT_SET_NO":999,"REV_AT_EPOCH":4963,"BSTAR":7.8216777e-5,"MEAN_MOTION_DOT":4.0e-7,"MEAN_MOTION_DDOT":0},{"OBJECT_NAME":"ONEWEB-0691","OBJECT_ID":"2024-188F","EPOCH":"2025-09-23T05:36:11.070144","MEAN_MOTION":13.11414122,"ECCENTRICITY":0.00018551,"INCLINATION":87.8718,"RA_OF_ASC_NODE":74.1633,"ARG_OF_PERICENTER":78.7441,"MEAN_ANOMALY":281.3895,"EPHEMERIS_TYPE":0,"CLASSIFICATION_TYPE":"U","NORAD_CAT_ID":61599,"ELEMENT_SET_NO":999,"REV_AT_EPOCH":4949,"BSTAR":0.0014644128,"MEAN_MOTION_DOT":5.32e-6,"MEAN_MOTION_DDOT":0},{"OBJECT_NAME":"ONEWEB-0692","OBJECT_ID":"2024-188G","EPOCH":"2025-09-23T04:15:36.174528","MEAN_MOTION":13.11412035,"ECCENTRICITY":0.00018024,"INCLINATION":87.8775,"RA_OF_ASC_NODE":74.2881,"ARG_OF_PERICENTER":123.2618,"MEAN_ANOMALY":236.8683,"EPHEMERIS_TYPE":0,"CLASSIFICATION_TYPE":"U","NORAD_CAT_ID":61600,"ELEMENT_SET_NO":999,"REV_AT_EPOCH":4947,"BSTAR":-0.00056382914,"MEAN_MOTION_DOT":-1.87e-6,"MEAN_MOTION_DDOT":0},{"OBJECT_NAME":"ONEWEB-0693","OBJECT_ID":"2024-188H","EPOCH":"2025-09-22T21:36:01.999296","MEAN_MOTION":13.17649801,"ECCENTRICITY":0.00011229,"INCLINATION":87.9054,"RA_OF_ASC_NODE":59.0884,"ARG_OF_PERICENTER":65.2247,"MEAN_ANOMALY":294.9001,"EPHEMERIS_TYPE":0,"CLASSIFICATION_TYPE":"U","NORAD_CAT_ID":61601,"ELEMENT_SET_NO":999,"REV_AT_EPOCH":5068,"BSTAR":3.3188494e-5,"MEAN_MOTION_DOT":2.6e-7,"MEAN_MOTION_DDOT":0},{"OBJECT_NAME":"ONEWEB-0695","OBJECT_ID":"2024-188J","EPOCH":"2025-09-23T05:31:18.229440","MEAN_MOTION":13.11416487,"ECCENTRICITY":0.00020084,"INCLINATION":87.8782,"RA_OF_ASC_NODE":74.2649,"ARG_OF_PERICENTER":104.4727,"MEAN_ANOMALY":255.6624,"EPHEMERIS_TYPE":0,"CLASSIFICATION_TYPE":"U","NORAD_CAT_ID":61602,"ELEMENT_SET_NO":999,"REV_AT_EPOCH":4947,"BSTAR":0.0014649405,"MEAN_MOTION_DOT":5.32e-6,"MEAN_MOTION_DDOT":0},{"OBJECT_NAME":"ONEWEB-0697","OBJECT_ID":"2024-188K","EPOCH":"2025-09-23T04:27:48.589920","MEAN_MOTION":13.11415615,"ECCENTRICITY":0.00017398,"INCLINATION":87.8778,"RA_OF_ASC_NODE":74.2647,"ARG_OF_PERICENTER":120.1768,"MEAN_ANOMALY":239.9532,"EPHEMERIS_TYPE":0,"CLASSIFICATION_TYPE":"U","NORAD_CAT_ID":61603,"ELEMENT_SET_NO":999,"REV_AT_EPOCH":4945,"BSTAR":-0.0014103373,"MEAN_MOTION_DOT":-4.87e-6,"MEAN_MOTION_DDOT":0},{"OBJECT_NAME":"ONEWEB-0698","OBJECT_ID":"2024-188L","EPOCH":"2025-09-23T03:56:05.113248","MEAN_MOTION":13.11413981,"ECCENTRICITY":0.00010003,"INCLINATION":87.878,"RA_OF_ASC_NODE":74.2837,"ARG_OF_PERICENTER":131.421,"MEAN_ANOMALY":228.7004,"EPHEMERIS_TYPE":0,"CLASSIFICATION_TYPE":"U","NORAD_CAT_ID":61604,"ELEMENT_SET_NO":999,"REV_AT_EPOCH":4947,"BSTAR":0.0010289423,"MEAN_MOTION_DOT":3.77e-6,"MEAN_MOTION_DDOT":0},{"OBJECT_NAME":"ONEWEB-0699","OBJECT_ID":"2024-188M","EPOCH":"2025-09-22T19:28:39.844128","MEAN_MOTION":13.10372715,"ECCENTRICITY":0.00015254,"INCLINATION":87.8745,"RA_OF_ASC_NODE":89.5702,"ARG_OF_PERICENTER":112.2551,"MEAN_ANOMALY":247.8738,"EPHEMERIS_TYPE":0,"CLASSIFICATION_TYPE":"U","NORAD_CAT_ID":61605,"ELEMENT_SET_NO":999,"REV_AT_EPOCH":4829,"BSTAR":0.0020850039,"MEAN_MOTION_DOT":7.41e-6,"MEAN_MOTION_DDOT":0},{"OBJECT_NAME":"ONEWEB-0700","OBJECT_ID":"2024-188N","EPOCH":"2025-09-22T12:11:14.344224","MEAN_MOTION":13.10372012,"ECCENTRICITY":0.00021228,"INCLINATION":87.8728,"RA_OF_ASC_NODE":89.5145,"ARG_OF_PERICENTER":106.3718,"MEAN_ANOMALY":253.7643,"EPHEMERIS_TYPE":0,"CLASSIFICATION_TYPE":"U","NORAD_CAT_ID":61606,"ELEMENT_SET_NO":999,"REV_AT_EPOCH":4824,"BSTAR":0.0017414382,"MEAN_MOTION_DOT":6.21e-6,"MEAN_MOTION_DDOT":0}]
